{
  "type": "FeatureCollection",
  "features": [
    {
      "type": "Feature",
      "properties": {
        "norad_id": 37491,
        "name": "COSMOS 2251 DEB",
        "group": "cosmos-2251-debris",
        "lat": -3.0570317542326357,
        "lon": -110.51965453475769,
        "alt_km": 1079.7811559153197,
        "timestamp": "2025-12-26T21:25:53.407205+00:00",
        "meta_object_name": "COSMOS 2251 DEB",
        "meta_object_id": "1993-036BLU",
        "meta_epoch": "2025-12-25T00:03:30.917952",
        "meta_mean_motion": 13.7531974,
        "meta_eccentricity": 0.03163036,
        "meta_inclination": 73.9051,
        "meta_ra_of_asc_node": 253.5322,
        "meta_arg_of_pericenter": 244.3669,
        "meta_mean_anomaly": 112.4464,
        "meta_ephemeris_type": 0,
        "meta_classification_type": "U",
        "meta_norad_cat_id": 37491,
        "meta_element_set_no": 999,
        "meta_rev_at_epoch": 55915,
        "meta_bstar": 0.00078980531,
        "meta_mean_motion_dot": 1.066e-05,
        "meta_mean_motion_ddot": 0,
        "tle_line1": "1 37491U 93036BLU 25359.00244118  .00001066  00000+0  78981-3 0  9997",
        "tle_line2": "2 37491  73.9051 253.5322 0316303 244.3669 112.4464 13.75319740559150"
      },
      "geometry": {
        "type": "Point",
        "coordinates": [
          -110.51965453475769,
          -3.0570317542326357
        ]
      }
    },
    {
      "type": "Feature",
      "properties": {
        "norad_id": 37498,
        "name": "COSMOS 2251 DEB",
        "group": "cosmos-2251-debris",
        "lat": 49.33738975497189,
        "lon": -42.36408439243896,
        "alt_km": 705.3046067328396,
        "timestamp": "2025-12-26T21:25:53.407215+00:00",
        "meta_object_name": "COSMOS 2251 DEB",
        "meta_object_id": "1993-036BMB",
        "meta_epoch": "2025-12-26T04:20:30.755328",
        "meta_mean_motion": 14.54866215,
        "meta_eccentricity": 0.00118174,
        "meta_inclination": 74.0361,
        "meta_ra_of_asc_node": 158.4484,
        "meta_arg_of_pericenter": 221.8173,
        "meta_mean_anomaly": 138.2088,
        "meta_ephemeris_type": 0,
        "meta_classification_type": "U",
        "meta_norad_cat_id": 37498,
        "meta_element_set_no": 999,
        "meta_rev_at_epoch": 65550,
        "meta_bstar": 0.0009187738,
        "meta_mean_motion_dot": 3.923e-05,
        "meta_mean_motion_ddot": 0,
        "tle_line1": "1 37498U 93036BMB 25360.18091152  .00003923  00000+0  91877-3 0  9996",
        "tle_line2": "2 37498  74.0361 158.4484 0011817 221.8173 138.2088 14.54866215655503"
      },
      "geometry": {
        "type": "Point",
        "coordinates": [
          -42.36408439243896,
          49.33738975497189
        ]
      }
    },
    {
      "type": "Feature",
      "properties": {
        "norad_id": 37499,
        "name": "COSMOS 2251 DEB",
        "group": "cosmos-2251-debris",
        "lat": 17.624178596876746,
        "lon": -58.50305554391952,
        "alt_km": 757.9024810067367,
        "timestamp": "2025-12-26T21:25:53.407225+00:00",
        "meta_object_name": "COSMOS 2251 DEB",
        "meta_object_id": "1993-036BMC",
        "meta_epoch": "2025-12-25T13:32:33.605376",
        "meta_mean_motion": 14.34354595,
        "meta_eccentricity": 0.0027475,
        "meta_inclination": 74.0386,
        "meta_ra_of_asc_node": 298.7117,
        "meta_arg_of_pericenter": 11.2548,
        "meta_mean_anomaly": 348.9212,
        "meta_ephemeris_type": 0,
        "meta_classification_type": "U",
        "meta_norad_cat_id": 37499,
        "meta_element_set_no": 999,
        "meta_rev_at_epoch": 85333,
        "meta_bstar": 0.00018715,
        "meta_mean_motion_dot": 5.02e-06,
        "meta_mean_motion_ddot": 0,
        "tle_line1": "1 37499U 93036BMC 25359.56427784  .00000502  00000+0  18715-3 0  9991",
        "tle_line2": "2 37499  74.0386 298.7117 0027475  11.2548 348.9212 14.34354595853337"
      },
      "geometry": {
        "type": "Point",
        "coordinates": [
          -58.50305554391952,
          17.624178596876746
        ]
      }
    },
    {
      "type": "Feature",
      "properties": {
        "norad_id": 37528,
        "name": "COSMOS 2251 DEB",
        "group": "cosmos-2251-debris",
        "lat": -71.92232273002135,
        "lon": 34.27529066556289,
        "alt_km": 718.6391211307673,
        "timestamp": "2025-12-26T21:25:53.407236+00:00",
        "meta_object_name": "COSMOS 2251 DEB",
        "meta_object_id": "1993-036BNH",
        "meta_epoch": "2025-12-25T12:42:07.093728",
        "meta_mean_motion": 14.50565382,
        "meta_eccentricity": 0.0021139,
        "meta_inclination": 74.0377,
        "meta_ra_of_asc_node": 98.1019,
        "meta_arg_of_pericenter": 245.0707,
        "meta_mean_anomaly": 114.8257,
        "meta_ephemeris_type": 0,
        "meta_classification_type": "U",
        "meta_norad_cat_id": 37528,
        "meta_element_set_no": 999,
        "meta_rev_at_epoch": 86116,
        "meta_bstar": 0.00049222,
        "meta_mean_motion_dot": 1.907e-05,
        "meta_mean_motion_ddot": 0,
        "tle_line1": "1 37528U 93036BNH 25359.52924877  .00001907  00000+0  49222-3 0  9992",
        "tle_line2": "2 37528  74.0377  98.1019 0021139 245.0707 114.8257 14.50565382861163"
      },
      "geometry": {
        "type": "Point",
        "coordinates": [
          34.27529066556289,
          -71.92232273002135
        ]
      }
    },
    {
      "type": "Feature",
      "properties": {
        "norad_id": 37530,
        "name": "COSMOS 2251 DEB",
        "group": "cosmos-2251-debris",
        "lat": 73.9588412219799,
        "lon": 43.154854078072304,
        "alt_km": 767.7471573499097,
        "timestamp": "2025-12-26T21:25:53.407246+00:00",
        "meta_object_name": "COSMOS 2251 DEB",
        "meta_object_id": "1993-036BNK",
        "meta_epoch": "2025-12-26T15:07:05.651328",
        "meta_mean_motion": 14.34521446,
        "meta_eccentricity": 0.00264743,
        "meta_inclination": 74.037,
        "meta_ra_of_asc_node": 308.2035,
        "meta_arg_of_pericenter": 6.4015,
        "meta_mean_anomaly": 166.8607,
        "meta_ephemeris_type": 0,
        "meta_classification_type": "U",
        "meta_norad_cat_id": 37530,
        "meta_element_set_no": 999,
        "meta_rev_at_epoch": 85431,
        "meta_bstar": 0.00025817672,
        "meta_mean_motion_dot": 7.05e-06,
        "meta_mean_motion_ddot": 0,
        "tle_line1": "1 37530U 93036BNK 25360.62992652  .00000705  00000+0  25818-3 0  9994",
        "tle_line2": "2 37530  74.0370 308.2035 0026474   6.4015 166.8607 14.34521446854310"
      },
      "geometry": {
        "type": "Point",
        "coordinates": [
          43.154854078072304,
          73.9588412219799
        ]
      }
    },
    {
      "type": "Feature",
      "properties": {
        "norad_id": 37532,
        "name": "COSMOS 2251 DEB",
        "group": "cosmos-2251-debris",
        "lat": -73.62940075672223,
        "lon": 112.67686364184974,
        "alt_km": 746.2697086710523,
        "timestamp": "2025-12-26T21:25:53.407256+00:00",
        "meta_object_name": "COSMOS 2251 DEB",
        "meta_object_id": "1993-036BNM",
        "meta_epoch": "2025-12-24T19:59:09.008160",
        "meta_mean_motion": 14.42423835,
        "meta_eccentricity": 0.00162225,
        "meta_inclination": 74.0486,
        "meta_ra_of_asc_node": 193.3082,
        "meta_arg_of_pericenter": 292.8067,
        "meta_mean_anomaly": 87.0164,
        "meta_ephemeris_type": 0,
        "meta_classification_type": "U",
        "meta_norad_cat_id": 37532,
        "meta_element_set_no": 999,
        "meta_rev_at_epoch": 85090,
        "meta_bstar": 0.00019035251,
        "meta_mean_motion_dot": 6.04e-06,
        "meta_mean_motion_ddot": 0,
        "tle_line1": "1 37532U 93036BNM 25358.83274315  .00000604  00000+0  19035-3 0  9997",
        "tle_line2": "2 37532  74.0486 193.3082 0016222 292.8067  87.0164 14.42423835850908"
      },
      "geometry": {
        "type": "Point",
        "coordinates": [
          112.67686364184974,
          -73.62940075672223
        ]
      }
    },
    {
      "type": "Feature",
      "properties": {
        "norad_id": 37533,
        "name": "COSMOS 2251 DEB",
        "group": "cosmos-2251-debris",
        "lat": -74.01163216529737,
        "lon": 72.30250882962184,
        "alt_km": 782.1887978934055,
        "timestamp": "2025-12-26T21:25:53.407266+00:00",
        "meta_object_name": "COSMOS 2251 DEB",
        "meta_object_id": "1993-036BNN",
        "meta_epoch": "2025-12-17T06:38:38.162976",
        "meta_mean_motion": 14.12190824,
        "meta_eccentricity": 0.0157786,
        "meta_inclination": 74.0692,
        "meta_ra_of_asc_node": 183.8069,
        "meta_arg_of_pericenter": 239.4795,
        "meta_mean_anomaly": 119.0691,
        "meta_ephemeris_type": 0,
        "meta_classification_type": "U",
        "meta_norad_cat_id": 37533,
        "meta_element_set_no": 999,
        "meta_rev_at_epoch": 62985,
        "meta_bstar": 0.0010470743,
        "meta_mean_motion_dot": 2.138e-05,
        "meta_mean_motion_ddot": 0,
        "tle_line1": "1 37533U 93036BNN 25351.27683059  .00002138  00000+0  10471-2 0  9996",
        "tle_line2": "2 37533  74.0692 183.8069 0157786 239.4795 119.0691 14.12190824629858"
      },
      "geometry": {
        "type": "Point",
        "coordinates": [
          72.30250882962184,
          -74.01163216529737
        ]
      }
    }
  ]
}